{
 "type": "FeatureCollection",
 "features": [
  {
   "type": "Feature",
   "properties": {
    "code": "BC",
    "name": "British Columbia"
   },
   "geometry": {
    "type": "Polygon",
    "coordinates": [
     [
      [
       -121.5,
       49.0
      ],
      [
       -114.07,
       49.0
      ],
      [
       -114.55,
       49.5
      ],
      [
       -115.0,
       50.0
      ],
      [
       -115.45,
       50.5
      ],
      [
       -115.95,
       51.0
      ],
      [
       -116.45,
       51.5
      ],
      [
       -117.0,
       52.0
      ],
      [
       -117.65,
       52.5
      ],
      [
       -118.5,
       53.0
      ],
      [
       -119.2,
       53.6
      ],
      [
       -120.0,
       54.0
      ],
      [
       -120.0,
       60.0
      ],
      [
       -121.5,
       60.0
      ],
      [
       -121.5,
       49.0
      ]
     ]
    ]
   }
  },
  {
   "type": "Feature",
   "properties": {
    "code": "AB",
    "name": "Alberta"
   },
   "geometry": {
    "type": "Polygon",
    "coordinates": [
     [
      [
       -114.07,
       49.0
      ],
      [
       -114.55,
       49.5
      ],
      [
       -115.0,
       50.0
      ],
      [
       -115.45,
       50.5
      ],
      [
       -115.95,
       51.0
      ],
      [
       -116.45,
       51.5
      ],
      [
       -117.0,
       52.0
      ],
      [
       -117.65,
       52.5
      ],
      [
       -118.5,
       53.0
      ],
      [
       -119.2,
       53.6
      ],
      [
       -120.0,
       54.0
      ],
      [
       -120.0,
       60.0
      ],
      [
       -110.0,
       60.0
      ],
      [
       -110.0,
       49.0
      ],
      [
       -114.07,
       49.0
      ]
     ]
    ]
   }
  },
  {
   "type": "Feature",
   "properties": {
    "code": "SK",
    "name": "Saskatchewan"
   },
   "geometry": {
    "type": "Polygon",
    "coordinates": [
     [
      [
       -110.0,
       49.0
      ],
      [
       -101.36,
       49.0
      ],
      [
       -101.36,
       60.0
      ],
      [
       -110.0,
       60.0
      ],
      [
       -110.0,
       49.0
      ]
     ]
    ]
   }
  },
  {
   "type": "Feature",
   "properties": {
    "code": "MB",
    "name": "Manitoba"
   },
   "geometry": {
    "type": "Polygon",
    "coordinates": [
     [
      [
       -101.36,
       49.0
      ],
      [
       -99.0,
       49.0
      ],
      [
       -99.0,
       60.0
      ],
      [
       -101.36,
       60.0
      ],
      [
       -101.36,
       49.0
      ]
     ]
    ]
   }
  }
 ]
}
